NORAD_CAT_ID,OBJECT_NAME,OBJECT_TYPE,EPOCH,MEAN_MOTION,ECCENTRICITY,INCLINATION,RA_OF_ASC_NODE,ARG_OF_PERICENTER,MEAN_ANOMALY,BSTAR,MEAN_MOTION_DOT,MEAN_MOTION_DDOT,TLE_LINE0,TLE_LINE1,TLE_LINE2,SEMIMAJOR_AXIS,PERIOD,APOGEE,PERIGEE,DECAYED
53011.0,STARLINK-4265,PAYLOAD,2024-08-12 11:11:14,15.08884228,0.000126,53.2166,141.912,82.4401,277.6734,0.00064115,9.943e-05,0.0,0 STARLINK-4265,1 53011U 22076AB  24225.46613694  .00009943  00000-0  64115-3 0  9996,2 53011  53.2166 141.9120 0001260  82.4401 277.6734 15.08884228116764,6917.745,95.435,540.482,538.739,0.0
53011.0,STARLINK-4265,PAYLOAD,2024-08-12 19:08:12,15.08825638,0.0001806,53.2151,140.422,68.472,291.6464,-0.00010346,-1.934e-05,0.0,0 STARLINK-4265,1 53011U 22076AB  24225.79736703 -.00001934  00000-0 -10346-3 0  9990,2 53011  53.2151 140.4220 0001806  68.4720 291.6464 15.08825638116819,6917.924,95.438,541.039,538.54,0.0
53011.0,STARLINK-4265,PAYLOAD,2024-08-12 22:18:58,15.08842288,0.0002507,53.2164,139.8307,75.6168,284.5102,0.00014453,2.013e-05,0.0,0 STARLINK-4265,1 53011U 22076AB  24225.92984110  .00002013  00000-0  14453-3 0  9992,2 53011  53.2164 139.8307 0002507  75.6168 284.5102 15.08842288116366,6917.873,95.437,541.473,538.004,0.0
53011.0,STARLINK-4265,PAYLOAD,2024-08-13 11:02:04,15.0880517,0.0001805,53.2163,137.4491,77.4693,282.6501,-0.00058143,-9.521e-05,0.0,0 STARLINK-4265,1 53011U 22076AB  24226.45977922 -.00009521  00000-0 -58143-3 0  9991,2 53011  53.2163 137.4491 0001805  77.4693 282.6501 15.08805170116918,6917.987,95.44,541.101,538.603,0.0
53011.0,STARLINK-4265,PAYLOAD,2024-08-13 22:09:47,15.08816862,0.0001599,53.2138,135.3649,62.6715,297.444,-0.0002088,-3.607e-05,0.0,0 STARLINK-4265,1 53011U 22076AB  24226.92346136 -.00003607  00000-0 -20880-3 0  9996,2 53011  53.2138 135.3649 0001599  62.6715 297.4440 15.08816862116515,6917.951,95.439,540.922,538.71,0.0
53011.0,STARLINK-4265,PAYLOAD,2024-08-14 04:31:20,15.08836889,0.0001544,53.2141,134.1823,83.8057,276.3111,0.0018835,0.00029813,0.0,0 STARLINK-4265,1 53011U 22076AB  24227.18842659  .00029813  00000-0  18835-2 0  9997,2 53011  53.2141 134.1823 0001544  83.8057 276.3111 15.08836889117023,6917.89,95.438,540.823,538.687,0.0
53011.0,STARLINK-4265,PAYLOAD,2024-08-14 10:52:52,15.08850985,0.0001487,53.2143,132.9912,86.0029,274.1133,0.001851,0.00029302,0.0,0 STARLINK-4265,1 53011U 22076AB  24227.45338564  .00029302  00000-0  18510-2 0  9995,2 53011  53.2143 132.9912 0001487  86.0029 274.1133 15.08850985116594,6917.847,95.437,540.74,538.683,0.0
53011.0,STARLINK-4265,PAYLOAD,2024-08-14 22:00:34,15.08857973,0.0001519,53.2142,130.9108,87.9193,272.1973,0.0010529,0.00016517,0.0,0 STARLINK-4265,1 53011U 22076AB  24227.91706273  .00016517  00000-0  10529-2 0  9998,2 53011  53.2142 130.9108 0001519  87.9193 272.1973 15.08857973116668,6917.825,95.436,540.741,538.64,0.0
53011.0,STARLINK-4265,PAYLOAD,2024-08-15 01:11:20,15.08874314,0.000162,53.2141,130.314,87.8543,272.2634,0.0017806,0.00028191,0.0,0 STARLINK-4265,1 53011U 22076AB  24228.04953932  .00028191  00000-0  17806-2 0  9995,2 53011  53.2141 130.3140 0001620  87.8543 272.2634 15.08874314117156,6917.776,95.435,540.761,538.52,0.0
53011.0,STARLINK-4265,PAYLOAD,2024-08-15 10:43:37,15.08895102,0.0001644,53.2142,128.5313,86.803,273.315,0.0016485,0.00026085,0.0,0 STARLINK-4265,1 53011U 22076AB  24228.44696753  .00026085  00000-0  16485-2 0  9996,2 53011  53.2142 128.5313 0001644  86.8030 273.3150 15.08895102116741,6917.712,95.434,540.714,538.44,0.0
53011.0,STARLINK-4265,PAYLOAD,2024-08-15 23:26:42,15.08866192,0.0001567,53.2139,126.1533,94.3524,265.7648,0.00097847,0.0001533,0.0,0 STARLINK-4265,1 53011U 22076AB  24228.97688098  .00015330  00000-0  97847-3 0  9990,2 53011  53.2139 126.1533 0001567  94.3524 265.7648 15.08866192116824,6917.8,95.436,540.749,538.581,0.0
53011.0,STARLINK-4265,PAYLOAD,2024-08-16 01:02:05,15.08859452,0.0001262,53.2146,125.8555,94.574,265.5396,0.00090498,0.00014152,0.0,0 STARLINK-4265,1 53011U 22076AB  24229.04312030  .00014152  00000-0  90498-3 0  9995,2 53011  53.2146 125.8555 0001262  94.5740 265.5396 15.08859452117309,6917.821,95.436,540.559,538.813,0.0
53011.0,STARLINK-4265,PAYLOAD,2024-08-16 21:42:06,15.08856951,0.0001417,53.2145,121.9876,90.7359,269.3795,0.0013167,0.00020739,0.0,0 STARLINK-4265,1 53011U 22076AB  24229.90424400  .00020739  00000-0  13167-2 0  9990,2 53011  53.2145 121.9876 0001417  90.7359 269.3795 15.08856951116964,6917.829,95.436,540.674,538.713,0.0
53011.0,STARLINK-4265,PAYLOAD,2024-08-17 02:28:16,15.08834941,0.0001303,53.2153,121.0979,92.7506,267.3636,0.00037365,5.663e-05,0.0,0 STARLINK-4265,1 53011U 22076AB  24230.10296692  .00005663  00000-0  37365-3 0  9990,2 53011  53.2153 121.0979 0001303  92.7506 267.3636 15.08834941117461,6917.896,95.438,540.662,538.859,0.0
53011.0,STARLINK-4265,PAYLOAD,2024-08-18 02:19:04,15.08834102,0.0001446,53.216,116.6334,82.2714,277.8442,0.00010605,1.4e-05,0.0,0 STARLINK-4265,1 53011U 22076AB  24231.09657584  .00001400  00000-0  10605-3 0  9993,2 53011  53.2160 116.6334 0001446  82.2714 277.8442 15.08834102117614,6917.898,95.438,540.764,538.763,0.0
53011.0,STARLINK-4265,PAYLOAD,2024-08-18 21:23:42,15.08834154,0.0001439,53.2156,113.0642,109.1517,250.9631,0.00022867,3.353e-05,0.0,0 STARLINK-4265,1 53011U 22076AB  24231.89145880  .00003353  00000-0  22867-3 0  9994,2 53011  53.2156 113.0642 0001439 109.1517 250.9631 15.08834154117264,6917.898,95.438,540.759,538.768,0.0
53011.0,STARLINK-4265,PAYLOAD,2024-08-19 08:31:23,15.08843284,0.0001484,53.2158,110.9844,114.0499,246.0648,0.00029072,4.342e-05,0.0,0 STARLINK-4265,1 53011U 22076AB  24232.35513536  .00004342  00000-0  29072-3 0  9997,2 53011  53.2158 110.9844 0001484 114.0499 246.0648 15.08843284117808,6917.87,95.437,540.762,538.709,0.0
53011.0,STARLINK-4265,PAYLOAD,2024-08-19 22:49:52,15.08834924,0.0001507,53.2163,108.3106,104.7409,255.375,-4.8289e-05,-1.056e-05,0.0,0 STARLINK-4265,1 53011U 22076AB  24232.95130170 -.00001056  00000-0 -48289-4 0  9995,2 53011  53.2163 108.3106 0001507 104.7409 255.3750 15.08834924117896,6917.896,95.438,540.803,538.718,0.0
53011.0,STARLINK-4265,PAYLOAD,2024-08-20 08:22:10,15.08847427,0.000168,53.2161,106.5313,88.2995,271.819,8.7659e-05,1.108e-05,0.0,0 STARLINK-4265,1 53011U 22076AB  24233.34873661  .00001108  00000-0  87659-4 0  9998,2 53011  53.2161 106.5313 0001680  88.2995 271.8190 15.08847427117952,6917.858,95.437,540.885,538.56,0.0
53011.0,STARLINK-4265,PAYLOAD,2024-08-20 21:05:15,15.08845321,0.0001707,53.2168,104.1553,124.8351,235.2801,0.0001608,2.272e-05,0.0,0 STARLINK-4265,1 53011U 22076AB  24233.87865708  .00002272  00000-0  16080-3 0  9991,2 53011  53.2168 104.1553 0001707 124.8351 235.2801 15.08845321117563,6917.864,95.437,540.91,538.548,0.0
53011.0,STARLINK-4265,PAYLOAD,2024-08-21 19:20:40,15.08829668,0.0001402,53.2169,99.9882,110.8095,249.3048,0.00034771,5.249e-05,0.0,0 STARLINK-4265,1 53011U 22076AB  24234.80602733  .00005249  00000-0  34771-3 0  9996,2 53011  53.2169  99.9882 0001402 110.8095 249.3048 15.08829668118175,6917.912,95.438,540.747,538.807,0.0
53011.0,STARLINK-4265,PAYLOAD,2024-08-21 20:56:03,15.08839335,0.0001355,53.2166,99.6918,107.8172,252.2968,-1.243e-05,-4.86e-06,0.0,0 STARLINK-4265,1 53011U 22076AB  24234.87226068 -.00000486  00000-0 -12430-4 0  9995,2 53011  53.2166  99.6918 0001355 107.8172 252.2968 15.08839335117713,6917.882,95.438,540.685,538.81,0.0
